OBJECT_NAME,OBJECT_ID,EPOCH,MEAN_MOTION,ECCENTRICITY,INCLINATION,RA_OF_ASC_NODE,ARG_OF_PERICENTER,MEAN_ANOMALY,EPHEMERIS_TYPE,CLASSIFICATION_TYPE,NORAD_CAT_ID,ELEMENT_SET_NO,REV_AT_EPOCH,BSTAR,MEAN_MOTION_DOT,MEAN_MOTION_DDOT
CUBEBUG-2 (LO-74),2013-066AA,2026-06-13T20:20:52.473984,14.93736485,.00586391,97.8902,113.8118,39.7873,320.7624,0,U,39440,999,67649,.42317108E-3,.4574E-4,0
FUNCUBE-1 (AO-73),2013-066AE,2026-06-13T20:59:27.159360,15.09452478,.00353773,97.8267,136.2511,212.6416,147.2626,0,U,39444,999,67916,.45803274E-3,.7372E-4,0
UWE-3,2013-066AG,2026-06-13T19:21:45.292608,14.96999955,.00481152,97.8688,120.8577,332.4032,27.4636,0,U,39446,999,67707,.38954975E-3,.4526E-4,0
UNISAT-6,2014-033C,2026-06-13T21:44:40.546176,14.88231131,.00463436,97.7870,317.6758,79.8423,280.8016,0,U,40012,999,64567,.35059703E-3,.3245E-4,0
DUCHIFAT-1,2014-033M,2026-06-13T16:41:08.119104,15.63932661,.00035227,98.0473,223.3664,119.5558,240.6051,0,U,40021,999,65520,.11044889E-2,.104898E-2,0
QB50P1,2014-033R,2026-06-13T20:30:47.534112,15.18214076,.00075433,98.0960,175.7668,228.5229,131.5356,0,U,40025,999,65252,.42731992E-3,.8675E-4,0
LILACSAT-2,2015-049K,2026-06-13T22:02:16.741248,15.51347791,.00053347,97.4650,201.6354,260.5734,99.4915,0,U,40908,999,59524,.31612594E-3,.18509E-3,0
FOX-1A (AO-85),2015-058D,2026-06-13T17:31:56.378496,14.90954961,.01302856,64.7761,289.7255,57.8943,303.4737,0,U,40967,999,11305,.23133565E-3,.2516E-4,0
CAS-2T & KS-1Q,2016-066G,2026-06-13T18:39:40.866048,14.44684063,.03426933,98.3821,240.5528,139.7889,222.9205,0,U,41847,999,50430,.23896475E-3,.1655E-4,0
RADFXSAT (FOX-1B),2017-073E,2026-06-13T21:36:51.114240,15.12671807,.01500687,97.4712,32.1832,340.6699,18.8875,0,U,43017,999,46489,.40162402E-3,.9197E-4,0
DIWATA-2B,2018-084H,2026-06-13T21:39:06.492672,15.00439222,.0012294,98.1177,0.9684,180.7543,179.3663,0,U,43678,999,41572,.2321488E-3,.2859E-4,0
ES'HAIL 2,2018-090A,2026-06-13T21:55:04.202112,1.00268934,.00015217,0.0122,8.3010,114.5239,133.9628,0,U,43700,999,2764,0,.154E-5,0
FOX-1CLIFF (AO-95),2018-099N,2026-06-13T16:03:57.413664,15.26643407,.00083552,97.4393,224.9284,10.7126,349.4289,0,U,43770,999,41268,.44517523E-3,.11615E-3,0
ITASAT,2018-099AE,2026-06-13T15:53:29.175072,15.19017046,.00124874,97.4034,216.2439,12.7704,347.3845,0,U,43786,999,41237,.32726829E-3,.6799E-4,0
JY1SAT (JO-97),2018-099AX,2026-06-13T16:52:06.438720,15.33551647,.00041888,97.4136,227.5247,279.4170,80.6599,0,U,43803,999,41309,.53015697E-3,.17139E-3,0
UWE-4,2018-111E,2026-06-13T18:50:04.199712,15.45933781,.00061312,97.5857,93.0195,357.5273,2.5945,0,U,43880,999,41025,.70749488E-3,.34468E-3,0
TIANYAN 01,2019-093C,2026-06-13T22:45:39.028896,14.86513612,.00150433,97.7535,237.2592,96.7418,263.5511,0,U,44881,999,35093,.10385424E-3,.867E-5,0
RS-44 & BREEZE-KM R/B,2019-096E,2026-06-13T21:04:13.521792,12.79748792,.02180418,82.5218,341.9043,151.8826,209.4256,0,U,44909,999,30192,.56262591E-4,.27E-6,0
SALSAT,2020-068K,2026-06-13T22:34:10.816608,15.29757675,.00082821,97.8844,167.8072,321.8659,38.1993,0,U,46495,999,31486,.28291677E-3,.8079E-4,0
XW-3 (CAS-9),2021-131B,2026-06-13T22:20:16.408608,14.41354240,.0005328,98.4980,257.3378,103.7712,256.4070,0,U,50466,999,23464,.139E-3,.406E-5,0
GREENCUBE (IO-117),2022-080E,2026-06-13T07:02:28.697280,6.42583230,.00089108,70.1444,299.5995,290.4576,69.5127,0,U,53109,999,9181,0,-.3E-7,0
UMKA 1 (RS40S),2023-091G,2026-06-13T22:27:22.010688,15.20783459,.00141295,97.5056,223.6451,127.7687,232.4831,0,U,57172,999,16351,.28526053E-3,.6232E-4,0
CUBESX-HSE 3 (RS42S),2023-091N,2026-06-13T21:45:02.853792,15.31139779,.00121138,97.5101,230.4518,104.8105,255.4478,0,U,57178,999,16392,.45445923E-3,.13631E-3,0
MONITOR-3 (RS58S),2023-091Q,2026-06-13T22:09:54.763200,15.27782396,.00131023,97.5091,228.3453,110.8639,249.4004,0,U,57180,999,16379,.42788119E-3,.1157E-3,0
MONITOR-4 (RS57S),2023-091S,2026-06-13T21:40:00.947136,15.27868427,.00131254,97.5086,228.2956,111.2625,249.0017,0,U,57182,999,16379,.37766049E-3,.10228E-3,0
MONITOR-2 (RS39S),2023-091U,2026-06-13T22:52:06.415392,15.18883791,.00126492,97.5079,223.2565,120.9063,239.3417,0,U,57184,999,16346,.24696043E-3,.5092E-4,0
SVYATOBOR 1 (RS60S),2023-091X,2026-06-13T21:54:49.356864,15.26564887,.00109142,97.5096,228.7117,104.2397,256.0054,0,U,57187,999,16381,.37631235E-3,.9787E-4,0
VIZARD-METEO (RS38S),2023-091Z,2026-06-13T22:55:47.684928,15.35932129,.00084488,97.5100,234.3755,87.2132,273.0078,0,U,57189,999,16419,.5037759E-3,.17577E-3,0
POLYTECH-UNIVERSE 3 (RS46S),2023-091AB,2026-06-13T21:57:02.433600,15.19084267,.00166967,97.5054,222.7229,137.2140,223.0397,0,U,57191,999,16345,.27079067E-3,.5631E-4,0
UTMN 2 (RS27S),2023-091AP,2026-06-13T22:12:57.417984,15.31979211,.00094228,97.5096,232.1012,93.5797,266.6522,0,U,57203,999,16404,.44644818E-3,.13733E-3,0
