CUBEBUG-2 (LO-74)       
1 39440U 13066AA  26164.84782956  .00004574  00000+0  42317-3 0  9993
2 39440  97.8902 113.8118 0058639  39.7873 320.7624 14.93736485676494
FUNCUBE-1 (AO-73)       
1 39444U 13066AE  26164.87461990  .00007372  00000+0  45803-3 0  9994
2 39444  97.8267 136.2511 0035377 212.6416 147.2626 15.09452478679163
UWE-3                   
1 39446U 13066AG  26164.80677422  .00004526  00000+0  38955-3 0  9996
2 39446  97.8688 120.8577 0048115 332.4032  27.4636 14.96999955677071
UNISAT-6                
1 40012U 14033C   26164.90602484  .00003245  00000+0  35060-3 0  9990
2 40012  97.7870 317.6758 0046343  79.8423 280.8016 14.88231131645672
DUCHIFAT-1              
1 40021U 14033M   26164.69523286  .00104898  00000+0  11045-2 0  9990
2 40021  98.0473 223.3664 0003522 119.5558 240.6051 15.63932661655200
QB50P1                  
1 40025U 14033R   26164.85471683  .00008675  00000+0  42732-3 0  9999
2 40025  98.0960 175.7668 0007543 228.5229 131.5356 15.18214076652523
LILACSAT-2              
1 40908U 15049K   26164.91824932  .00018509  00000+0  31613-3 0  9996
2 40908  97.4650 201.6354 0005334 260.5734  99.4915 15.51347791595242
FOX-1A (AO-85)          
1 40967U 15058D   26164.73051364  .00002516  00000+0  23134-3 0  9992
2 40967  64.7761 289.7255 0130285  57.8943 303.4737 14.90954961113057
CAS-2T & KS-1Q          
1 41847U 16066G   26164.77755632  .00001655  00000+0  23896-3 0  9991
2 41847  98.3821 240.5528 0342693 139.7889 222.9205 14.44684063504309
RADFXSAT (FOX-1B)       
1 43017U 17073E   26164.90059160  .00009197  00000+0  40162-3 0  9993
2 43017  97.4712  32.1832 0150068 340.6699  18.8875 15.12671807464899
DIWATA-2B               
1 43678U 18084H   26164.90215848  .00002859  00000+0  23215-3 0  9994
2 43678  98.1177   0.9684 0012294 180.7543 179.3663 15.00439222415728
ES'HAIL 2               
1 43700U 18090A   26164.91324308  .00000154  00000+0  00000+0 0  9999
2 43700   0.0122   8.3010 0001521 114.5239 133.9628  1.00268934 27641
FOX-1CLIFF (AO-95)      
1 43770U 18099N   26164.66941451  .00011615  00000+0  44518-3 0  9991
2 43770  97.4393 224.9284 0008355  10.7126 349.4289 15.26643407412685
ITASAT                  
1 43786U 18099AE  26164.66214323  .00006799  00000+0  32727-3 0  9995
2 43786  97.4034 216.2439 0012487  12.7704 347.3845 15.19017046412372
JY1SAT (JO-97)          
1 43803U 18099AX  26164.70285230  .00017139  00000+0  53016-3 0  9999
2 43803  97.4136 227.5247 0004188 279.4170  80.6599 15.33551647413094
UWE-4                   
1 43880U 18111E   26164.78477083  .00034468  00000+0  70749-3 0  9992
2 43880  97.5857  93.0195 0006131 357.5273   2.5945 15.45933781410259
TIANYAN 01              
1 44881U 19093C   26164.94836839  .00000867  00000+0  10385-3 0  9996
2 44881  97.7535 237.2592 0015043  96.7418 263.5511 14.86513612350931
RS-44 & BREEZE-KM R/B   
1 44909U 19096E   26164.87793428  .00000027  00000+0  56263-4 0  9992
2 44909  82.5218 341.9043 0218041 151.8826 209.4256 12.79748792301924
SALSAT                  
1 46495U 20068K   26164.94040297  .00008079  00000+0  28292-3 0  9997
2 46495  97.8844 167.8072 0008282 321.8659  38.1993 15.29757675314864
XW-3 (CAS-9)            
1 50466U 21131B   26164.93074547  .00000406  00000+0  13900-3 0  9992
2 50466  98.4980 257.3378 0005328 103.7712 256.4070 14.41354240234646
GREENCUBE (IO-117)      
1 53109U 22080E   26164.29338770 -.00000003  00000+0  00000+0 0  9990
2 53109  70.1444 299.5995 0008910 290.4576  69.5127  6.42583230 91811
UMKA 1 (RS40S)          
1 57172U 23091G   26164.93567142  .00006232  00000+0  28526-3 0  9991
2 57172  97.5056 223.6451 0014129 127.7687 232.4831 15.20783459163517
CUBESX-HSE 3 (RS42S)    
1 57178U 23091N   26164.90628303  .00013631  00000+0  45446-3 0  9992
2 57178  97.5101 230.4518 0012113 104.8105 255.4478 15.31139779163925
MONITOR-3 (RS58S)       
1 57180U 23091Q   26164.92355050  .00011570  00000+0  42788-3 0  9999
2 57180  97.5091 228.3453 0013102 110.8639 249.4004 15.27782396163795
MONITOR-4 (RS57S)       
1 57182U 23091S   26164.90278874  .00010228  00000+0  37766-3 0  9996
2 57182  97.5086 228.2956 0013125 111.2625 249.0017 15.27868427163793
MONITOR-2 (RS39S)       
1 57184U 23091U   26164.95285203  .00005092  00000+0  24696-3 0  9998
2 57184  97.5079 223.2565 0012649 120.9063 239.3417 15.18883791163462
SVYATOBOR 1 (RS60S)     
1 57187U 23091X   26164.91307126  .00009787  00000+0  37631-3 0  9994
2 57187  97.5096 228.7117 0010914 104.2397 256.0054 15.26564887163818
VIZARD-METEO (RS38S)    
1 57189U 23091Z   26164.95541302  .00017577  00000+0  50378-3 0  9995
2 57189  97.5100 234.3755 0008448  87.2132 273.0078 15.35932129164198
POLYTECH-UNIVERSE 3 (R*)
1 57191U 23091AB  26164.91461150  .00005631  00000+0  27079-3 0  9996
2 57191  97.5054 222.7229 0016696 137.2140 223.0397 15.19084267163455
UTMN 2 (RS27S)          
1 57203U 23091AP  26164.92566456  .00013733  00000+0  44645-3 0  9996
2 57203  97.5096 232.1012 0009422  93.5797 266.6522 15.31979211164046
